{
  "type": "FeatureCollection",
  "features": [
    {
      "type": "Feature",
      "properties": {
        "norad_id": 34492,
        "name": "IRIDIUM 33 DEB",
        "group": "iridium-33-debris",
        "lat": 26.095510639231584,
        "lon": 155.4613697965869,
        "alt_km": 839.1492159099307,
        "timestamp": "2025-12-06T09:34:17.299400+00:00",
        "meta_object_name": "IRIDIUM 33 DEB",
        "meta_object_id": "1997-051GH",
        "meta_epoch": "2025-12-05T22:51:29.100960",
        "meta_mean_motion": 14.25438879,
        "meta_eccentricity": 0.01898317,
        "meta_inclination": 86.4721,
        "meta_ra_of_asc_node": 337.3731,
        "meta_arg_of_pericenter": 260.2605,
        "meta_mean_anomaly": 126.3251,
        "meta_ephemeris_type": 0,
        "meta_classification_type": "U",
        "meta_norad_cat_id": 34492,
        "meta_element_set_no": 999,
        "meta_rev_at_epoch": 84962,
        "meta_bstar": 0.0085984506,
        "meta_mean_motion_dot": 0.00024583,
        "meta_mean_motion_ddot": 0,
        "tle_line1": "1 34492U 97051GH  25339.95242015  .00024583  00000+0  85985-2 0  9992",
        "tle_line2": "2 34492  86.4721 337.3731 0189831 260.2605 126.3251 14.25438879849620"
      },
      "geometry": {
        "type": "Point",
        "coordinates": [
          155.4613697965869,
          26.095510639231584
        ]
      }
    },
    {
      "type": "Feature",
      "properties": {
        "norad_id": 34497,
        "name": "IRIDIUM 33 DEB",
        "group": "iridium-33-debris",
        "lat": -8.039053235801266,
        "lon": 54.583933079440634,
        "alt_km": 747.8000375305883,
        "timestamp": "2025-12-06T09:34:17.299410+00:00",
        "meta_object_name": "IRIDIUM 33 DEB",
        "meta_object_id": "1997-051GN",
        "meta_epoch": "2025-12-05T05:08:17.522880",
        "meta_mean_motion": 14.27419297,
        "meta_eccentricity": 0.00795949,
        "meta_inclination": 86.2787,
        "meta_ra_of_asc_node": 55.6164,
        "meta_arg_of_pericenter": 4.0623,
        "meta_mean_anomaly": 24.0045,
        "meta_ephemeris_type": 0,
        "meta_classification_type": "U",
        "meta_norad_cat_id": 34497,
        "meta_element_set_no": 999,
        "meta_rev_at_epoch": 86776,
        "meta_bstar": 0.0011650862,
        "meta_mean_motion_dot": 2.973e-05,
        "meta_mean_motion_ddot": 0,
        "tle_line1": "1 34497U 97051GN  25339.21409170  .00002973  00000+0  11651-2 0  9991",
        "tle_line2": "2 34497  86.2787  55.6164 0079594   4.0623  24.0045 14.27419297867768"
      },
      "geometry": {
        "type": "Point",
        "coordinates": [
          54.583933079440634,
          -8.039053235801266
        ]
      }
    },
    {
      "type": "Feature",
      "properties": {
        "norad_id": 34508,
        "name": "IRIDIUM 33 DEB",
        "group": "iridium-33-debris",
        "lat": -80.78334934639193,
        "lon": -51.64363610841451,
        "alt_km": 753.5825783961864,
        "timestamp": "2025-12-06T09:34:17.299420+00:00",
        "meta_object_name": "IRIDIUM 33 DEB",
        "meta_object_id": "1997-051GZ",
        "meta_epoch": "2025-12-05T20:40:26.099616",
        "meta_mean_motion": 14.38329921,
        "meta_eccentricity": 0.00656266,
        "meta_inclination": 86.3708,
        "meta_ra_of_asc_node": 105.5587,
        "meta_arg_of_pericenter": 195.2988,
        "meta_mean_anomaly": 164.6228,
        "meta_ephemeris_type": 0,
        "meta_classification_type": "U",
        "meta_norad_cat_id": 34508,
        "meta_element_set_no": 999,
        "meta_rev_at_epoch": 87210,
        "meta_bstar": 0.0032326883,
        "meta_mean_motion_dot": 0.00010115,
        "meta_mean_motion_ddot": 0,
        "tle_line1": "1 34508U 97051GZ  25339.86141319  .00010115  00000+0  32327-2 0  9993",
        "tle_line2": "2 34508  86.3708 105.5587 0065626 195.2988 164.6228 14.38329921872101"
      },
      "geometry": {
        "type": "Point",
        "coordinates": [
          -51.64363610841451,
          -80.78334934639193
        ]
      }
    },
    {
      "type": "Feature",
      "properties": {
        "norad_id": 34521,
        "name": "IRIDIUM 33 DEB",
        "group": "iridium-33-debris",
        "lat": -50.02771456844943,
        "lon": -142.3297307867862,
        "alt_km": 688.9990277618881,
        "timestamp": "2025-12-06T09:34:17.299430+00:00",
        "meta_object_name": "IRIDIUM 33 DEB",
        "meta_object_id": "1997-051HN",
        "meta_epoch": "2025-12-05T14:28:10.515936",
        "meta_mean_motion": 14.63269452,
        "meta_eccentricity": 0.00010915,
        "meta_inclination": 86.3806,
        "meta_ra_of_asc_node": 33.69,
        "meta_arg_of_pericenter": 272.9891,
        "meta_mean_anomaly": 87.1196,
        "meta_ephemeris_type": 0,
        "meta_classification_type": "U",
        "meta_norad_cat_id": 34521,
        "meta_element_set_no": 999,
        "meta_rev_at_epoch": 88368,
        "meta_bstar": 0.0017646216,
        "meta_mean_motion_dot": 9.121e-05,
        "meta_mean_motion_ddot": 0,
        "tle_line1": "1 34521U 97051HN  25339.60289949  .00009121  00000+0  17646-2 0  9994",
        "tle_line2": "2 34521  86.3806  33.6900 0001091 272.9891  87.1196 14.63269452883685"
      },
      "geometry": {
        "type": "Point",
        "coordinates": [
          -142.3297307867862,
          -50.02771456844943
        ]
      }
    },
    {
      "type": "Feature",
      "properties": {
        "norad_id": 34525,
        "name": "IRIDIUM 33 DEB",
        "group": "iridium-33-debris",
        "lat": 25.01486436777938,
        "lon": -132.145522714386,
        "alt_km": 745.0535721080014,
        "timestamp": "2025-12-06T09:34:17.299440+00:00",
        "meta_object_name": "IRIDIUM 33 DEB",
        "meta_object_id": "1997-051HS",
        "meta_epoch": "2025-12-05T23:41:22.507584",
        "meta_mean_motion": 14.42879627,
        "meta_eccentricity": 0.00065723,
        "meta_inclination": 86.3736,
        "meta_ra_of_asc_node": 49.7259,
        "meta_arg_of_pericenter": 110.7293,
        "meta_mean_anomaly": 66.6493,
        "meta_ephemeris_type": 0,
        "meta_classification_type": "U",
        "meta_norad_cat_id": 34525,
        "meta_element_set_no": 999,
        "meta_rev_at_epoch": 87990,
        "meta_bstar": 0.00073169424,
        "meta_mean_motion_dot": 2.463e-05,
        "meta_mean_motion_ddot": 0,
        "tle_line1": "1 34525U 97051HS  25339.98706606  .00002463  00000+0  73169-3 0  9998",
        "tle_line2": "2 34525  86.3736  49.7259 0006572 110.7293  66.6493 14.42879627879900"
      },
      "geometry": {
        "type": "Point",
        "coordinates": [
          -132.145522714386,
          25.01486436777938
        ]
      }
    },
    {
      "type": "Feature",
      "properties": {
        "norad_id": 34529,
        "name": "IRIDIUM 33 DEB",
        "group": "iridium-33-debris",
        "lat": 77.88618556937591,
        "lon": -159.11479676612683,
        "alt_km": 749.666535547789,
        "timestamp": "2025-12-06T09:34:17.299450+00:00",
        "meta_object_name": "IRIDIUM 33 DEB",
        "meta_object_id": "1997-051HW",
        "meta_epoch": "2025-12-05T16:25:52.738752",
        "meta_mean_motion": 14.40607273,
        "meta_eccentricity": 0.00039387,
        "meta_inclination": 86.3647,
        "meta_ra_of_asc_node": 38.419,
        "meta_arg_of_pericenter": 201.6561,
        "meta_mean_anomaly": 158.4472,
        "meta_ephemeris_type": 0,
        "meta_classification_type": "U",
        "meta_norad_cat_id": 34529,
        "meta_element_set_no": 999,
        "meta_rev_at_epoch": 88040,
        "meta_bstar": 0.00022639258,
        "meta_mean_motion_dot": 7.41e-06,
        "meta_mean_motion_ddot": 0,
        "tle_line1": "1 34529U 97051HW  25339.68463818  .00000741  00000+0  22639-3 0  9997",
        "tle_line2": "2 34529  86.3647  38.4190 0003938 201.6561 158.4472 14.40607273880403"
      },
      "geometry": {
        "type": "Point",
        "coordinates": [
          -159.11479676612683,
          77.88618556937591
        ]
      }
    },
    {
      "type": "Feature",
      "properties": {
        "norad_id": 34538,
        "name": "IRIDIUM 33 DEB",
        "group": "iridium-33-debris",
        "lat": -72.17735148861473,
        "lon": -159.98306103551215,
        "alt_km": 760.1606291004819,
        "timestamp": "2025-12-06T09:34:17.299460+00:00",
        "meta_object_name": "IRIDIUM 33 DEB",
        "meta_object_id": "1997-051JF",
        "meta_epoch": "2025-12-05T13:07:40.840608",
        "meta_mean_motion": 14.42583503,
        "meta_eccentricity": 0.00337266,
        "meta_inclination": 86.2775,
        "meta_ra_of_asc_node": 8.7066,
        "meta_arg_of_pericenter": 352.2765,
        "meta_mean_anomaly": 159.7147,
        "meta_ephemeris_type": 0,
        "meta_classification_type": "U",
        "meta_norad_cat_id": 34538,
        "meta_element_set_no": 999,
        "meta_rev_at_epoch": 87652,
        "meta_bstar": 0.0017788509,
        "meta_mean_motion_dot": 5.964e-05,
        "meta_mean_motion_ddot": 0,
        "tle_line1": "1 34538U 97051JF  25339.54700047  .00005964  00000+0  17789-2 0  9991",
        "tle_line2": "2 34538  86.2775   8.7066 0033726 352.2765 159.7147 14.42583503876525"
      },
      "geometry": {
        "type": "Point",
        "coordinates": [
          -159.98306103551215,
          -72.17735148861473
        ]
      }
    }
  ]
}